{
  "type": "FeatureCollection",
  "features": [
    {
      "type": "Feature",
      "properties": {
        "norad_id": 44709,
        "name": "BEIDOU-3 IGSO-3 (C40)",
        "group": "gnss",
        "lat": -53.255957640660554,
        "lon": 171.74355407618236,
        "alt_km": 35722.47872602387,
        "timestamp": "2025-12-02T23:34:15.759360+00:00",
        "meta_object_name": "BEIDOU-3 IGSO-3 (C40)",
        "meta_object_id": "2019-073A",
        "meta_epoch": "2025-11-20T07:11:22.740000",
        "meta_mean_motion": 1.00250097,
        "meta_eccentricity": 0.0044538,
        "meta_inclination": 55.163,
        "meta_ra_of_asc_node": 283.159,
        "meta_arg_of_pericenter": 191.5856,
        "meta_mean_anomaly": 168.2409,
        "meta_ephemeris_type": 0,
        "meta_classification_type": "U",
        "meta_norad_cat_id": 44709,
        "meta_element_set_no": 999,
        "meta_rev_at_epoch": 2236,
        "meta_bstar": 0,
        "meta_mean_motion_dot": -2.06e-06,
        "meta_mean_motion_ddot": 0,
        "tle_line1": "1 44709U 19073A   25324.29956875 -.00000206  00000+0  00000+0 0  9998",
        "tle_line2": "2 44709  55.1630 283.1590 0044538 191.5856 168.2409  1.00250097 22360"
      },
      "geometry": {
        "type": "Point",
        "coordinates": [
          171.74355407618236,
          -53.255957640660554
        ]
      }
    },
    {
      "type": "Feature",
      "properties": {
        "norad_id": 44793,
        "name": "BEIDOU-3 M22 (C44)",
        "group": "gnss",
        "lat": -51.50649938891453,
        "lon": -118.78389629605122,
        "alt_km": 21535.68037191416,
        "timestamp": "2025-12-02T23:34:15.759374+00:00",
        "meta_object_name": "BEIDOU-3 M22 (C44)",
        "meta_object_id": "2019-078A",
        "meta_epoch": "2025-12-02T00:28:58.554624",
        "meta_mean_motion": 1.86231817,
        "meta_eccentricity": 0.00056333,
        "meta_inclination": 54.1183,
        "meta_ra_of_asc_node": 306.7625,
        "meta_arg_of_pericenter": 22.616,
        "meta_mean_anomaly": 337.398,
        "meta_ephemeris_type": 0,
        "meta_classification_type": "U",
        "meta_norad_cat_id": 44793,
        "meta_element_set_no": 999,
        "meta_rev_at_epoch": 4097,
        "meta_bstar": 0,
        "meta_mean_motion_dot": -6.1e-07,
        "meta_mean_motion_ddot": 0,
        "tle_line1": "1 44793U 19078A   25336.02012216 -.00000061  00000+0  00000+0 0  9991",
        "tle_line2": "2 44793  54.1183 306.7625 0005633  22.6160 337.3980  1.86231817 40974"
      },
      "geometry": {
        "type": "Point",
        "coordinates": [
          -118.78389629605122,
          -51.50649938891453
        ]
      }
    },
    {
      "type": "Feature",
      "properties": {
        "norad_id": 44794,
        "name": "BEIDOU-3 M21 (C43)",
        "group": "gnss",
        "lat": -10.404771717944918,
        "lon": 134.31647385957524,
        "alt_km": 21540.73965542864,
        "timestamp": "2025-12-02T23:34:15.759387+00:00",
        "meta_object_name": "BEIDOU-3 M21 (C43)",
        "meta_object_id": "2019-078B",
        "meta_epoch": "2025-12-01T02:00:26.030304",
        "meta_mean_motion": 1.86227539,
        "meta_eccentricity": 0.00038706,
        "meta_inclination": 54.0922,
        "meta_ra_of_asc_node": 306.7607,
        "meta_arg_of_pericenter": 10.0971,
        "meta_mean_anomaly": 349.9036,
        "meta_ephemeris_type": 0,
        "meta_classification_type": "U",
        "meta_norad_cat_id": 44794,
        "meta_element_set_no": 999,
        "meta_rev_at_epoch": 4096,
        "meta_bstar": 0,
        "meta_mean_motion_dot": -5.7e-07,
        "meta_mean_motion_ddot": 0,
        "tle_line1": "1 44794U 19078B   25335.08363461 -.00000057  00000+0  00000+0 0  9993",
        "tle_line2": "2 44794  54.0922 306.7607 0003870  10.0971 349.9036  1.86227539 40963"
      },
      "geometry": {
        "type": "Point",
        "coordinates": [
          134.31647385957524,
          -10.404771717944918
        ]
      }
    },
    {
      "type": "Feature",
      "properties": {
        "norad_id": 44850,
        "name": "COSMOS 2544 (759)",
        "group": "gnss",
        "lat": 63.53244405250683,
        "lon": 146.7013941898572,
        "alt_km": 19157.276168183074,
        "timestamp": "2025-12-02T23:34:15.759401+00:00",
        "meta_object_name": "COSMOS 2544 (759)",
        "meta_object_id": "2019-088A",
        "meta_epoch": "2025-12-02T09:48:35.343360",
        "meta_mean_motion": 2.13101818,
        "meta_eccentricity": 0.0013669,
        "meta_inclination": 65.4544,
        "meta_ra_of_asc_node": 80.304,
        "meta_arg_of_pericenter": 248.8168,
        "meta_mean_anomaly": 111.0338,
        "meta_ephemeris_type": 0,
        "meta_classification_type": "U",
        "meta_norad_cat_id": 44850,
        "meta_element_set_no": 999,
        "meta_rev_at_epoch": 4652,
        "meta_bstar": 0,
        "meta_mean_motion_dot": -1.9e-07,
        "meta_mean_motion_ddot": 0,
        "tle_line1": "1 44850U 19088A   25336.40874240 -.00000019  00000+0  00000+0 0  9994",
        "tle_line2": "2 44850  65.4544  80.3040 0013669 248.8168 111.0338  2.13101818 46527"
      },
      "geometry": {
        "type": "Point",
        "coordinates": [
          146.7013941898572,
          63.53244405250683
        ]
      }
    },
    {
      "type": "Feature",
      "properties": {
        "norad_id": 44864,
        "name": "BEIDOU-3 M19 (C41)",
        "group": "gnss",
        "lat": 23.57199274467333,
        "lon": 86.13203575983529,
        "alt_km": 21536.864732681483,
        "timestamp": "2025-12-02T23:34:15.759414+00:00",
        "meta_object_name": "BEIDOU-3 M19 (C41)",
        "meta_object_id": "2019-090A",
        "meta_epoch": "2025-12-01T20:54:26.017344",
        "meta_mean_motion": 1.86231094,
        "meta_eccentricity": 0.00175122,
        "meta_inclination": 56.3837,
        "meta_ra_of_asc_node": 69.3227,
        "meta_arg_of_pericenter": 284.7988,
        "meta_mean_anomaly": 78.8343,
        "meta_ephemeris_type": 0,
        "meta_classification_type": "U",
        "meta_norad_cat_id": 44864,
        "meta_element_set_no": 999,
        "meta_rev_at_epoch": 4056,
        "meta_bstar": 0,
        "meta_mean_motion_dot": -4.4e-07,
        "meta_mean_motion_ddot": 0,
        "tle_line1": "1 44864U 19090A   25335.87113446 -.00000044  00000+0  00000+0 0  9994",
        "tle_line2": "2 44864  56.3837  69.3227 0017512 284.7988  78.8343  1.86231094 40563"
      },
      "geometry": {
        "type": "Point",
        "coordinates": [
          86.13203575983529,
          23.57199274467333
        ]
      }
    },
    {
      "type": "Feature",
      "properties": {
        "norad_id": 44865,
        "name": "BEIDOU-3 M20 (C42)",
        "group": "gnss",
        "lat": 47.266268746070864,
        "lon": -156.64596169387227,
        "alt_km": 21563.266894300123,
        "timestamp": "2025-12-02T23:34:15.759426+00:00",
        "meta_object_name": "BEIDOU-3 M20 (C42)",
        "meta_object_id": "2019-090B",
        "meta_epoch": "2025-12-02T06:29:14.465184",
        "meta_mean_motion": 1.86231065,
        "meta_eccentricity": 0.0014652,
        "meta_inclination": 56.3856,
        "meta_ra_of_asc_node": 69.3436,
        "meta_arg_of_pericenter": 297.6266,
        "meta_mean_anomaly": 63.245,
        "meta_ephemeris_type": 0,
        "meta_classification_type": "U",
        "meta_norad_cat_id": 44865,
        "meta_element_set_no": 999,
        "meta_rev_at_epoch": 4055,
        "meta_bstar": 0,
        "meta_mean_motion_dot": -4.6e-07,
        "meta_mean_motion_ddot": 0,
        "tle_line1": "1 44865U 19090B   25336.27030631 -.00000046  00000+0  00000+0 0  9996",
        "tle_line2": "2 44865  56.3856  69.3436 0014652 297.6266  63.2450  1.86231065 40555"
      },
      "geometry": {
        "type": "Point",
        "coordinates": [
          -156.64596169387227,
          47.266268746070864
        ]
      }
    },
    {
      "type": "Feature",
      "properties": {
        "norad_id": 45344,
        "name": "BEIDOU-3 G2 (C60)",
        "group": "gnss",
        "lat": 2.9117942648107307,
        "lon": 145.67693176495942,
        "alt_km": 35804.191496288964,
        "timestamp": "2025-12-02T23:34:15.759437+00:00",
        "meta_object_name": "BEIDOU-3 G2 (C60)",
        "meta_object_id": "2020-017A",
        "meta_epoch": "2025-12-02T09:01:44.857632",
        "meta_mean_motion": 1.00270444,
        "meta_eccentricity": 0.0004538,
        "meta_inclination": 2.9802,
        "meta_ra_of_asc_node": 43.5434,
        "meta_arg_of_pericenter": 263.8442,
        "meta_mean_anomaly": 339.5888,
        "meta_ephemeris_type": 0,
        "meta_classification_type": "U",
        "meta_norad_cat_id": 45344,
        "meta_element_set_no": 999,
        "meta_rev_at_epoch": 2128,
        "meta_bstar": 0,
        "meta_mean_motion_dot": -1.22e-06,
        "meta_mean_motion_ddot": 0,
        "tle_line1": "1 45344U 20017A   25336.37621363 -.00000122  00000+0  00000+0 0  9994",
        "tle_line2": "2 45344   2.9802  43.5434 0004538 263.8442 339.5888  1.00270444 21284"
      },
      "geometry": {
        "type": "Point",
        "coordinates": [
          145.67693176495942,
          2.9117942648107307
        ]
      }
    }
  ]
}